{
  "cached": {
    "metar": "[{\"icaoId\":\"SBRP\",\"receiptTime\":\"2026-04-10T09:56:40.928Z\",\"obsTime\":1775815200,\"reportTime\":\"2026-04-10T10:00:00.000Z\",\"temp\":21,\"dewp\":20,\"wdir\":60,\"wspd\":3,\"visib\":\"6+\",\"altim\":1016,\"qcField\":0,\"metarType\":\"METAR\",\"rawOb\":\"METAR SBRP 101000Z 06003KT CAVOK 21/20 Q1016\",\"lat\":-21.134,\"lon\":-47.774,\"elev\":550,\"name\":\"Ribeirão Preto/Lopes Arpt, SP, BR\",\"cover\":\"CAVOK\",\"clouds\":[],\"fltCat\":\"VFR\"}]",
    "raw": "[{\"icaoId\":\"SBRP\",\"receiptTime\":\"2026-04-10T09:56:40.928Z\",\"obsTime\":1775815200,\"reportTime\":\"2026-04-10T10:00:00.000Z\",\"temp\":21,\"dewp\":20,\"wdir\":60,\"wspd\":3,\"visib\":\"6+\",\"altim\":1016,\"qcField\":0,\"metarType\":\"METAR\",\"rawOb\":\"METAR SBRP 101000Z 06003KT CAVOK 21/20 Q1016\",\"lat\":-21.134,\"lon\":-47.774,\"elev\":550,\"name\":\"Ribeirão Preto/Lopes Arpt, SP, BR\",\"cover\":\"CAVOK\",\"clouds\":[],\"fltCat\":\"VFR\"}]",
    "station": null,
    "obsTime": "101000Z",
    "obsTimeLocal": "07:00",
    "wind": {
      "dir": "060",
      "speedKt": 3,
      "gustKt": null
    },
    "visibility": "2026 m",
    "clouds": [],
    "weather": [
      "BR"
    ],
    "temperatureC": 21,
    "dewPointC": 20,
    "qnh_hpa": 1016,
    "temperature": 21,
    "dewPoint": 20,
    "humidity": 94,
    "updatedAt": "07:50",
    "iconName": "sun-fog",
    "iconPath": "/weather-icons/sun-fog.svg",
    "iconUrl": "http://localhost:3000/weather-icons/sun-fog.svg"
  },
  "cachedMetar": "[{\"icaoId\":\"SBRP\",\"receiptTime\":\"2026-04-10T09:56:40.928Z\",\"obsTime\":1775815200,\"reportTime\":\"2026-04-10T10:00:00.000Z\",\"temp\":21,\"dewp\":20,\"wdir\":60,\"wspd\":3,\"visib\":\"6+\",\"altim\":1016,\"qcField\":0,\"metarType\":\"METAR\",\"rawOb\":\"METAR SBRP 101000Z 06003KT CAVOK 21/20 Q1016\",\"lat\":-21.134,\"lon\":-47.774,\"elev\":550,\"name\":\"Ribeirão Preto/Lopes Arpt, SP, BR\",\"cover\":\"CAVOK\",\"clouds\":[],\"fltCat\":\"VFR\"}]",
  "cachedAt": 1775818226416
}