{
  "cached": {
    "metar": "2025102719 - METAR SBRP 271900Z 11006KT 9999 SCT035 OVC090 26/15 Q1015=",
    "raw": "2025102719 - METAR SBRP 271900Z 11006KT 9999 SCT035 OVC090 26/15 Q1015=",
    "station": null,
    "obsTime": "271900Z",
    "obsTimeLocal": "19:00",
    "wind": {
      "dir": "110",
      "speedKt": 6,
      "gustKt": null
    },
    "visibility": ">=10km",
    "clouds": [
      {
        "type": "SCT",
        "heightFt": 3500,
        "modifier": null
      },
      {
        "type": "OVC",
        "heightFt": 9000,
        "modifier": null
      }
    ],
    "weather": null,
    "temperatureC": 26,
    "dewPointC": 15,
    "qnh_hpa": 1015,
    "temperature": 26,
    "dewPoint": 15,
    "humidity": 51,
    "updatedAt": "16:28",
    "iconName": "cloud",
    "iconPath": "/weather-icons/cloud.svg",
    "iconUrl": "http://localhost:3000/weather-icons/cloud.svg"
  },
  "cachedMetar": "2025102719 - METAR SBRP 271900Z 11006KT 9999 SCT035 OVC090 26/15 Q1015=",
  "cachedAt": 1761593299060
}