{
  "cached": {
    "metar": "2025112015 - METAR SBRP 201500Z 12008KT 9999 FEW040 30/10 Q1014=",
    "raw": "2025112015 - METAR SBRP 201500Z 12008KT 9999 FEW040 30/10 Q1014=",
    "station": null,
    "obsTime": "201500Z",
    "obsTimeLocal": "12:00",
    "wind": {
      "dir": "120",
      "speedKt": 8,
      "gustKt": null
    },
    "visibility": ">=10km",
    "clouds": [
      {
        "type": "FEW",
        "heightFt": 4000,
        "modifier": null
      }
    ],
    "weather": null,
    "temperatureC": 30,
    "dewPointC": 10,
    "qnh_hpa": 1014,
    "temperature": 30,
    "dewPoint": 10,
    "humidity": 29,
    "updatedAt": "12:38",
    "iconName": "sun",
    "iconPath": "/weather-icons/sun.svg",
    "iconUrl": "http://localhost:3000/weather-icons/sun.svg"
  },
  "cachedMetar": "2025112015 - METAR SBRP 201500Z 12008KT 9999 FEW040 30/10 Q1014=",
  "cachedAt": 1763653116059
}