{
  "cached": {
    "metar": "2025102216 - METAR SBRP 221600Z 07010KT 030V100 CAVOK 27/06 Q1023=",
    "raw": "2025102216 - METAR SBRP 221600Z 07010KT 030V100 CAVOK 27/06 Q1023=",
    "station": "SBRP",
    "obsTime": "221600Z",
    "obsTimeLocal": "16:00",
    "wind": {
      "dir": "070",
      "speedKt": 10,
      "gustKt": null
    },
    "visibility": ">=10km",
    "clouds": [],
    "weather": null,
    "temperatureC": 27,
    "dewPointC": 6,
    "qnh_hpa": 1023,
    "temperature": 27,
    "dewPoint": 6,
    "humidity": 26,
    "updatedAt": "15:28"
  },
  "cachedMetar": "2025102216 - METAR SBRP 221600Z 07010KT 030V100 CAVOK 27/06 Q1023=",
  "cachedAt": 1761157717582
}