{
  "cached": {
    "metar": "2025102215 - METAR SBRP 221500Z 11012KT 9999 SCT045 26/06 Q1024=",
    "raw": "2025102215 - METAR SBRP 221500Z 11012KT 9999 SCT045 26/06 Q1024=",
    "station": "SBRP",
    "obsTime": "221500Z",
    "obsTimeLocal": "15:00",
    "wind": {
      "dir": "110",
      "speedKt": 12,
      "gustKt": null
    },
    "visibility": ">=10km",
    "clouds": [
      {
        "type": "SCT",
        "heightFt": 4500,
        "modifier": null
      }
    ],
    "weather": null,
    "temperatureC": 26,
    "dewPointC": 6,
    "qnh_hpa": 1024,
    "temperature": 26,
    "dewPoint": 6,
    "humidity": 28,
    "updatedAt": "12:45"
  },
  "cachedMetar": "2025102215 - METAR SBRP 221500Z 11012KT 9999 SCT045 26/06 Q1024=",
  "cachedAt": 1761150539511
}