{
  "cached": {
    "metar": "2025102923 - METAR SBRP 292300Z 26004KT CAVOK 26/19 Q1016=",
    "raw": "2025102923 - METAR SBRP 292300Z 26004KT CAVOK 26/19 Q1016=",
    "station": null,
    "obsTime": "292300Z",
    "obsTimeLocal": "23:00",
    "wind": {
      "dir": "260",
      "speedKt": 4,
      "gustKt": null
    },
    "visibility": ">=10km",
    "clouds": [],
    "weather": null,
    "temperatureC": 26,
    "dewPointC": 19,
    "qnh_hpa": 1016,
    "temperature": 26,
    "dewPoint": 19,
    "humidity": 65,
    "updatedAt": "20:23",
    "iconName": "moon",
    "iconPath": "/weather-icons/moon.svg",
    "iconUrl": "http://localhost:3000/weather-icons/moon.svg"
  },
  "cachedMetar": "2025102923 - METAR SBRP 292300Z 26004KT CAVOK 26/19 Q1016=",
  "cachedAt": 1761780201358
}